NORAD_CAT_ID,OBJECT_NAME,OBJECT_TYPE,EPOCH,MEAN_MOTION,ECCENTRICITY,INCLINATION,RA_OF_ASC_NODE,ARG_OF_PERICENTER,MEAN_ANOMALY,BSTAR,MEAN_MOTION_DOT,MEAN_MOTION_DDOT,TLE_LINE0,TLE_LINE1,TLE_LINE2,SEMIMAJOR_AXIS,PERIOD,APOGEE,PERIGEE,DECAYED
50178.0,STARLINK-3284,PAYLOAD,2024-08-18 08:54:32,15.08844417,0.0001746,53.216,280.2601,116.5809,243.5362,-6.2339e-06,-3.87e-06,0.0,0 STARLINK-3284,1 50178U 21125Y   24231.37121288 -.00000387  00000-0 -62339-5 0  9994,2 50178  53.2160 280.2601 0001746 116.5809 243.5362 15.08844417150314,6917.867,95.437,540.94,538.524,0.0
50178.0,STARLINK-3284,PAYLOAD,2024-08-19 11:56:06,15.08836637,0.0001326,53.2158,275.2043,86.2639,273.8505,4.1852e-05,3.78e-06,0.0,0 STARLINK-3284,1 50178U 21125Y   24232.49729964  .00000378  00000-0  41852-4 0  9997,2 50178  53.2158 275.2043 0001326  86.2639 273.8505 15.08836637150481,6917.891,95.438,540.673,538.838,0.0
50178.0,STARLINK-3284,PAYLOAD,2024-08-20 10:11:30,15.08842457,0.0001369,53.2157,271.0415,84.3617,275.7531,9.9627e-05,1.298e-05,0.0,0 STARLINK-3284,1 50178U 21125Y   24233.42465551  .00001298  00000-0  99627-4 0  9995,2 50178  53.2157 271.0415 0001369  84.3617 275.7531 15.08842457151151,6917.873,95.437,540.685,538.791,0.0
50178.0,STARLINK-3284,PAYLOAD,2024-08-21 10:02:17,15.08837459,0.0001445,53.2159,266.581,83.0746,277.0411,9.272e-05,1.188e-05,0.0,0 STARLINK-3284,1 50178U 21125Y   24234.41826038  .00001188  00000-0  92720-4 0  9991,2 50178  53.2159 266.5810 0001445  83.0746 277.0411 15.08837459150770,6917.888,95.438,540.753,538.754,0.0
50178.0,STARLINK-3284,PAYLOAD,2024-08-21 19:34:36,15.08841559,0.0001394,53.2158,264.7969,88.303,271.8122,0.00010364,1.362e-05,0.0,0 STARLINK-3284,1 50178U 21125Y   24234.81569751  .00001362  00000-0  10364-3 0  9998,2 50178  53.2158 264.7969 0001394  88.3030 271.8122 15.08841559151364,6917.876,95.437,540.705,538.776,0.0
